******** Week 906 almanac for PRN-01 ********
ID:                         01
Health:                     000
Eccentricity:               0.6087303162E-002
Time of Applicability(s):  61440.0000
Orbital Inclination(rad):   0.9665481118
Rate of Right Ascen(r/s):  -0.7783181344E-008
SQRT(A)  (m 1/2):           5153.653320
Right Ascen at Week(rad):   0.1162147740E+000
Argument of Perigee(rad):   0.555236630
Mean Anom(rad):            -0.1276245051E+000
Af0(s):                     0.4577636719E-004
Af1(s/s):                   0.0000000000E+000
week:                        906

******** Week 906 almanac for PRN-02 ********
ID:                         02
Health:                     000
Eccentricity:               0.1640081406E-001
Time of Applicability(s):  61440.0000
Orbital Inclination(rad):   0.9454199233
Rate of Right Ascen(r/s):  -0.7966046104E-008
SQRT(A)  (m 1/2):           5153.656738
Right Ascen at Week(rad):   0.6598664036E-001
Argument of Perigee(rad):  -2.047401836
Mean Anom(rad):             0.3189305598E+000
Af0(s):                     0.5006790161E-003
Af1(s/s):                  -0.7275957614E-011
week:                        906

******** Week 906 almanac for PRN-03 ********
ID:                         03
Health:                     000
Eccentricity:               0.4034042358E-003
Time of Applicability(s):  61440.0000
Orbital Inclination(rad):   0.9592736873
Rate of Right Ascen(r/s):  -0.7760323249E-008
SQRT(A)  (m 1/2):           5153.497559
Right Ascen at Week(rad):   0.1157942026E+001
Argument of Perigee(rad):   0.849954187
Mean Anom(rad):            -0.1466721573E+001
Af0(s):                    -0.1049041748E-003
Af1(s/s):                   0.0000000000E+000
week:                        906

******** Week 906 almanac for PRN-05 ********
ID:                         05
Health:                     000
Eccentricity:               0.4900455475E-002
Time of Applicability(s):  61440.0000
Orbital Inclination(rad):   0.9462827875
Rate of Right Ascen(r/s):  -0.7897471819E-008
SQRT(A)  (m 1/2):           5153.605469
Right Ascen at Week(rad):   0.1143083085E+001
Argument of Perigee(rad):   0.565953523
Mean Anom(rad):             0.2807988908E+001
Af0(s):                    -0.6866455078E-004
Af1(s/s):                   0.3637978807E-011
week:                        906

******** Week 906 almanac for PRN-06 ********
ID:                         06
Health:                     000
Eccentricity:               0.4777908325E-003
Time of Applicability(s):  61440.0000
Orbital Inclination(rad):   0.9663443800
Rate of Right Ascen(r/s):  -0.7771752296E-008
SQRT(A)  (m 1/2):           5153.548828
Right Ascen at Week(rad):   0.1078306851E+000
Argument of Perigee(rad):  -1.482672951
Mean Anom(rad):             0.2938816572E+000
Af0(s):                     0.2937316895E-003
Af1(s/s):                   0.3637978807E-011
week:                        906

******** Week 906 almanac for PRN-07 ********
ID:                         07
Health:                     000
Eccentricity:               0.1006507874E-001
Time of Applicability(s):  61440.0000
Orbital Inclination(rad):   0.9643250381
Rate of Right Ascen(r/s):  -0.7748894201E-008
SQRT(A)  (m 1/2):           5153.568359
Right Ascen at Week(rad):  -0.3009188690E+001
Argument of Perigee(rad):  -2.613082718
Mean Anom(rad):            -0.7582411607E+000
Af0(s):                     0.3967285156E-003
Af1(s/s):                  -0.3637978807E-011
week:                        906

******** Week 906 almanac for PRN-08 ********
ID:                         08
Health:                     000
Eccentricity:               0.2314090729E-002
Time of Applicability(s):  61440.0000
Orbital Inclination(rad):   0.9653796499
Rate of Right Ascen(r/s):  -0.8228914196E-008
SQRT(A)  (m 1/2):           5153.512695
Right Ascen at Week(rad):  -0.9456193857E+000
Argument of Perigee(rad):  -0.946068794
Mean Anom(rad):             0.2730828102E+001
Af0(s):                    -0.4482269287E-004
Af1(s/s):                   0.0000000000E+000
week:                        906

******** Week 906 almanac for PRN-09 ********
ID:                         09
Health:                     000
Eccentricity:               0.8664131165E-003
Time of Applicability(s):  61440.0000
Orbital Inclination(rad):   0.9537789202
Rate of Right Ascen(r/s):  -0.8091765626E-008
SQRT(A)  (m 1/2):           5153.652832
Right Ascen at Week(rad):   0.2195792006E+001
Argument of Perigee(rad):   1.734062291
Mean Anom(rad):             0.2228453513E+001
Af0(s):                     0.2746582031E-003
Af1(s/s):                   0.7275957614E-011
week:                        906

******** Week 906 almanac for PRN-10 ********
ID:                         10
Health:                     000
Eccentricity:               0.2069473267E-002
Time of Applicability(s):  61440.0000
Orbital Inclination(rad):   0.9594714270
Rate of Right Ascen(r/s):  -0.7783181344E-008
SQRT(A)  (m 1/2):           5153.625488
Right Ascen at Week(rad):   0.1154126923E+001
Argument of Perigee(rad):  -2.943106176
Mean Anom(rad):            -0.2162205093E+001
Af0(s):                    -0.1153945923E-003
Af1(s/s):                   0.0000000000E+000
week:                        906

******** Week 906 almanac for PRN-11 ********
ID:                         11
Health:                     000
Eccentricity:               0.1666498184E-001
Time of Applicability(s):  61440.0000
Orbital Inclination(rad):   0.8994903813
Rate of Right Ascen(r/s):  -0.8617501811E-008
SQRT(A)  (m 1/2):           5153.628418
Right Ascen at Week(rad):  -0.2759566273E+000
Argument of Perigee(rad):   1.609976878
Mean Anom(rad):            -0.7062378638E+000
Af0(s):                    -0.6685256958E-003
Af1(s/s):                   0.0000000000E+000
week:                        906

******** Week 906 almanac for PRN-12 ********
ID:                         12
Health:                     000
Eccentricity:               0.6225109100E-002
Time of Applicability(s):  61440.0000
Orbital Inclination(rad):   0.9897196107
Rate of Right Ascen(r/s):  -0.7680319916E-008
SQRT(A)  (m 1/2):           5153.565918
Right Ascen at Week(rad):  -0.1928379757E+001
Argument of Perigee(rad):   0.779913508
Mean Anom(rad):            -0.1345018398E+001
Af0(s):                     0.3890991211E-003
Af1(s/s):                   0.0000000000E+000
week:                        906

******** Week 906 almanac for PRN-13 ********
ID:                         13
Health:                     000
Eccentricity:               0.4078865051E-002
Time of Applicability(s):  61440.0000
Orbital Inclination(rad):   0.9700714739
Rate of Right Ascen(r/s):  -0.7908900866E-008
SQRT(A)  (m 1/2):           5153.627930
Right Ascen at Week(rad):   0.2319819746E+001
Argument of Perigee(rad):   1.860828052
Mean Anom(rad):             0.2849298157E+000
Af0(s):                    -0.6294250488E-004
Af1(s/s):                   0.0000000000E+000
week:                        906

******** Week 906 almanac for PRN-14 ********
ID:                         14
Health:                     000
Eccentricity:               0.8632659912E-002
Time of Applicability(s):  61440.0000
Orbital Inclination(rad):   0.9625453807
Rate of Right Ascen(r/s):  -0.8011762293E-008
SQRT(A)  (m 1/2):           5153.551758
Right Ascen at Week(rad):   0.2281346639E+001
Argument of Perigee(rad):  -1.951653496
Mean Anom(rad):             0.1616815001E+001
Af0(s):                    -0.5245208740E-004
Af1(s/s):                   0.0000000000E+000
week:                        906

******** Week 906 almanac for PRN-15 ********
ID:                         15
Health:                     000
Eccentricity:               0.8990287781E-002
Time of Applicability(s):  61440.0000
Orbital Inclination(rad):   0.9294030067
Rate of Right Ascen(r/s):  -0.8354633718E-008
SQRT(A)  (m 1/2):           5153.653320
Right Ascen at Week(rad):   0.2137809330E+001
Argument of Perigee(rad):   0.557261590
Mean Anom(rad):             0.1208637544E+001
Af0(s):                    -0.3395080566E-003
Af1(s/s):                   0.0000000000E+000
week:                        906

******** Week 906 almanac for PRN-16 ********
ID:                         16
Health:                     000
Eccentricity:               0.8948802948E-002
Time of Applicability(s):  61440.0000
Orbital Inclination(rad):   0.9901989797
Rate of Right Ascen(r/s):  -0.7691748964E-008
SQRT(A)  (m 1/2):           5153.583984
Right Ascen at Week(rad):  -0.1909544301E+001
Argument of Perigee(rad):   0.382643942
Mean Anom(rad):             0.2993490479E+001
Af0(s):                     0.2193450928E-004
Af1(s/s):                   0.0000000000E+000
week:                        906

******** Week 906 almanac for PRN-17 ********
ID:                         17
Health:                     000
Eccentricity:               0.1160955429E-001
Time of Applicability(s):  61440.0000
Orbital Inclination(rad):   0.9785982499
Rate of Right Ascen(r/s):  -0.8068907531E-008
SQRT(A)  (m 1/2):           5153.508301
Right Ascen at Week(rad):  -0.8900215703E+000
Argument of Perigee(rad):  -1.885674346
Mean Anom(rad):             0.1935866152E+001
Af0(s):                    -0.1955032349E-003
Af1(s/s):                   0.0000000000E+000
week:                        906

